ALOS-4 (DAICHI-4)       
1 60182U 24123A   24281.80586332  .00009741  00000+0  13089-2 0  9994
2 60182  97.9212  16.8427 0001419  92.2057 267.9317 14.79487011 14593
